{"signature":{"source":"NASA/JPL Horizons API","version":"1.2"},"result":"*******************************************************************************
 Revised: June 02, 2025                 Mars                            499 / 4
 
 PHYSICAL DATA (updated 2025-Jun-02):
  Vol. mean radius (km) = 3389.92+-0.04   Density (g/cm^3)      =  3.933(5+-4)
  Mass x10^23 (kg)      =    6.4171       Flattening, f         =  1/169.779
  Volume (x10^10 km^3)  =   16.318        Equatorial radius (km)=  3396.19
  Sidereal rot. period  =   24.622962 hr  Sid. rot. rate, rad/s =  0.0000708822 
  Mean solar day (sol)  =   88775.24415 s Polar gravity m/s^2   =  3.758
  Core radius (km)      = ~1700           Equ. gravity  m/s^2   =  3.71
  Geometric Albedo      =    0.150                                              

  GM (km^3/s^2)         = 42828.375662    Mass ratio (Sun/Mars) = 3098703.59
  GM 1-sigma (km^3/s^2) = +- 0.00028      Mass of atmosphere, kg= ~ 2.5 x 10^16
  Mean temperature (K)  =  210            Atmos. pressure (bar) =    0.0056 
  Obliquity to orbit    =   25.19 deg     Max. angular diam.    =  17.9\"
  Mean sidereal orb per =    1.88081578 y Visual mag. V(1,0)    =  -1.52
  Mean sidereal orb per =  686.98 d       Orbital speed,  km/s  =  24.13
  Hill's sphere rad. Rp =  319.8          Escape speed, km/s    =   5.027
                                 Perihelion  Aphelion    Mean
  Solar Constant (W/m^2)         717         493         589
  Maximum Planetary IR (W/m^2)   470         315         390
  Minimum Planetary IR (W/m^2)    30          30          30
*******************************************************************************


*******************************************************************************
Ephemeris / API_USER Sat Sep 20 12:30:00 2025 Pasadena, USA      / Horizons
*******************************************************************************
Target body name: Mars (499)                      {source: mar099}
Center body name: Sun (10)                        {source: DE441}
Center-site name: BODY CENTER
*******************************************************************************
Start time      : A.D. 2025-Jan-01 00:00:00.0000 TDB
Stop  time      : A.D. 2026-Jan-01 00:00:00.0000 TDB
Step-size       : 60 minutes
*******************************************************************************
Center geodetic : 0.0, 0.0, 0.0                   {E-lon(deg),Lat(deg),Alt(km)}
Center cylindric: 0.0, 0.0, 0.0                   {E-lon(deg),Dxy(km),Dz(km)}
Center radii    : 695700.0, 695700.0, 695700.0 km {Equator_a, b, pole_c}
Output units    : KM-S
Calendar mode   : Mixed Julian/Gregorian
Output type     : GEOMETRIC cartesian states
Output format   : 3 (position, velocity, LT, range, range-rate)
Reference frame : Ecliptic of J2000.0
*******************************************************************************
            JDTDB,            Calendar Date (TDB),                      X,                      Y,                      Z,                     VX,                     VY,                     VZ,                     LT,                     RG,                     RR,
**************************************************************************************************************************************************************************************************************************************************************************
$$SOE
2460760.500000000, A.D. 2025-Mar-26 00:00:00.0000, -2.076324078234489E+08,  1.369941649056270E+08,  7.962576200534292E+06, -1.243380851548586E+01, -1.815543732331508E+01, -7.556223596707490E-02,  8.301794547627991E+02,  2.488815393244393E+08,  3.771712280270405E-01,
2460760.541666667, A.D. 2025-Mar-26 01:00:00.0000, -2.076771579498613E+08,  1.369287976905300E+08,  7.962303732282504E+06, -1.242737260843336E+01, -1.815968182797073E+01, -7.580901442661947E-02,  8.301839796795158E+02,  2.488828958603441E+08,  3.764598215333438E-01,
2460760.583333333, A.D. 2025-Mar-26 02:00:00.0000, -2.077218849046691E+08,  1.368634151989738E+08,  7.962030375633419E+06, -1.242093540136695E+01, -1.816392424230991E+01, -7.605579017706532E-02,  8.301884960531418E+02,  2.488842498350947E+08,  3.757483656898294E-01,
2460760.625000000, A.D. 2025-Mar-26 03:00:00.0000, -2.077665886831942E+08,  1.367980174385140E+08,  7.961756130598560E+06, -1.241449689710974E+01, -1.816816454973715E+01, -7.630256133626023E-02,  8.301930038831424E+02,  2.488856012485308E+08,  3.750368714626749E-01,
2460760.666666667, A.D. 2025-Mar-26 04:00:00.0000, -2.078112692807861E+08,  1.367326044167568E+08,  7.961480997204863E+06, -1.240805710780712E+01, -1.817240274000404E+01, -7.654932155599159E-02,  8.301975031691483E+02,  2.488869501005417E+08,  3.743253542396044E-01,
2460760.708333333, A.D. 2025-Mar-26 05:00:00.0000, -2.078559266928477E+08,  1.366671761413247E+08,  7.961204975505956E+06, -1.240161604948394E+01, -1.817663881507719E+01, -7.679606304661846E-02,  8.302019939109629E+02,  2.488882963910685E+08,  3.736138259858072E-01,
2460760.750000000, A.D. 2025-Mar-26 06:00:00.0000, -2.079005609148330E+08,  1.366017326198090E+08,  7.960928065579154E+06, -1.239517373275281E+01, -1.818087278984873E+01, -7.704278133522635E-02,  8.302064761084710E+02,  2.488896401200768E+08,  3.729022869633236E-01,
2460760.791666667, A.D. 2025-Mar-26 07:00:00.0000, -2.079451719422095E+08,  1.365362738597352E+08,  7.960650267504819E+06, -1.238873015388443E+01, -1.818510468313765E+01, -7.728947941685149E-02,  8.302109497614682E+02,  2.488909812875051E+08,  3.721907230873007E-01,
2460760.833333333, A.D. 2025-Mar-26 08:00:00.0000, -2.079897597704080E+08,  1.364707998685785E+08,  7.960371581341468E+06, -1.238228529765986E+01, -1.818933450242847E+01, -7.753616563879184E-02,  8.302154148695477E+02,  2.488923198932314E+08,  3.714791167343703E-01,
2460760.875000000, A.D. 2025-Mar-26 09:00:00.0000, -2.080343243948025E+08,  1.364053106538161E+08,  7.960092007117696E+06, -1.237583914996623E+01, -1.819356223945306E+01, -7.778284709997063E-02,  8.302198714321374E+02,  2.488936559370844E+08,  3.707674598731945E-01,
2460760.916666667, A.D. 2025-Mar-26 10:00:00.0000, -2.080788658107321E+08,  1.363398062229728E+08,  7.959811544845603E+06, -1.236939170629146E+01, -1.819778787785991E+01, -7.802952566295129E-02,  8.302243194486470E+02,  2.488949894188870E+08,  3.700557570702981E-01,
2460760.958333333, A.D. 2025-Mar-26 11:00:00.0000, -2.081233840135400E+08,  1.362742865836324E+08,  7.959530194540657E+06, -1.236294297310422E+01, -1.820201140251246E+01, -7.827619765665528E-02,  8.302287589185983E+02,  2.488963203384960E+08,  3.693440215610829E-01,
2460761.000000000, A.D. 2025-Mar-26 12:00:00.0000, -2.081678789986083E+08,  1.362087517434197E+08,  7.959247956239134E+06, -1.235649296476044E+01, -1.820623280681230E+01, -7.852285576888285E-02,  8.302331898416926E+02,  2.488976486958216E+08,  3.686322686086854E-01,
2460761.041666667, A.D. 2025-Mar-26 13:00:00.0000, -2.082123507613751E+08,  1.361432017099600E+08,  7.958964830004789E+06, -1.235004169660647E+01, -1.821045209749242E+01, -7.876949276408318E-02,  8.302376122177841E+02,  2.488989744908203E+08,  3.679205070157940E-01,
2460761.083333333, A.D. 2025-Mar-26 14:00:00.0000, -2.082567992973208E+08,  1.360776364908320E+08,  7.958680815919697E+06, -1.234358917509154E+01, -1.821466929275480E+01, -7.901610643376689E-02,  8.302420260467539E+02,  2.489002977234564E+08,  3.672087317329751E-01,
2460761.125000000, A.D. 2025-Mar-26 15:00:00.0000, -2.083012246019213E+08,  1.360120560935468E+08,  7.958395914059930E+06, -1.233713539125005E+01, -1.821888440864200E+01, -7.926270231949850E-02,  8.302464313283421E+02,  2.489016183936519E+08,  3.664969257712044E-01,
2460761.166666667, A.D. 2025-Mar-26 16:00:00.0000, -2.083456266706034E+08,  1.359464605255821E+08,  7.958110124473929E+06, -1.233068032897283E+01, -1.822309744704770E+01, -7.950928898151322E-02,  8.302508280620796E+02,  2.489029365012662E+08,  3.657850738041542E-01,
2460761.208333333, A.D. 2025-Mar-26 17:00:00.0000, -2.083900054987416E+08,  1.358808497944352E+08,  7.957823447183385E+06, -1.232422397682849E+01, -1.822730839595585E+01, -7.975587199343881E-02,  8.302552162473781E+02,  2.489042520461230E+08,  3.650731720977111E-01,
2460761.250000000, A.D. 2025-Mar-26 18:00:00.0000, -2.084343610816875E+08,  1.358152239076597E+08,  7.957535882199936E+06, -1.231776633424513E+01, -1.823151723821008E+01, -8.000245117856153E-02,  8.302595958836812E+02,  2.489055650280554E+08,  3.643612289741440E-01,
2460761.291666667, A.D. 2025-Mar-26 19:00:00.0000, -2.084786934148110E+08,  1.357495828728641E+08,  7.957247429545656E+06, -1.231130741095925E+01, -1.823572396129128E+01, -8.024902131635958E-02,  8.302639669705759E+02,  2.489068754469397E+08,  3.636492590000022E-01,
2460761.333333333, A.D. 2025-Mar-26 20:00:00.0000, -2.085230024935285E+08,  1.356839266976857E+08,  7.956958089266784E+06, -1.230484722266005E+01, -1.823992856248839E+01, -8.049557458447598E-02,  8.302683295078284E+02,  2.489081833027058E+08,  3.629372764587943E-01,
2460761.375000000, A.D. 2025-Mar-26 21:00:00.0000, -2.085672883133128E+08,  1.356182553897463E+08,  7.956667861436412E+06, -1.229838578278007E+01, -1.824413105378335E+01, -8.074210494943479E-02,  8.302726834953299E+02,  2.489094885953210E+08,  3.622252856921599E-01,
2460761.416666667, A.D. 2025-Mar-26 22:00:00.0000, -2.086115508696644E+08,  1.355525689566072E+08,  7.956376746138185E+06, -1.229192309231053E+01, -1.824833145421353E+01, -8.098861301649674E-02,  8.302770289329331E+02,  2.489107913247411E+08,  3.615132765880434E-01,
2460761.458333333, A.D. 2025-Mar-26 23:00:00.0000, -2.086557901580619E+08,  1.354868674057699E+08,  7.956084743440904E+06, -1.228545913870015E+01, -1.825252977586246E+01, -8.123510597880390E-02,  8.302813658203128E+02,  2.489120914908688E+08,  3.608012312808975E-01,
